ORBCOMM FM115           
1 41186U 15081H   24315.45088983  .00004036  00000+0  83777-3 0  9992
2 41186  46.9992 359.2486 0000517 260.7063  99.3765 14.61632010475767
ORBCOMM FM108           
1 41187U 15081J   24314.58408009  .00006095  00000+0  13659-2 0  9999
2 41187  47.0044  63.5248 0002109 340.2030  19.8774 14.57427600474753
ORBCOMM FM117           
1 41188U 15081K   24315.03042602  .00005725  00000+0  12861-2 0  9997
2 41188  47.0006  60.2576 0002252   3.0973 356.9926 14.57395980474916
ORBCOMM FM116           
1 41189U 15081L   24314.88264042  .00002958  00000+0  68240-3 0  9992
2 41189  46.9999 150.7916 0001891 137.9487 222.1543 14.57407769473652
